[{"OBJECT_NAME":"SL-16 R/B","OBJECT_ID":"1993-059B","EPOCH":"2026-03-26T20:09:24.902784","MEAN_MOTION":14.17235362,"ECCENTRICITY":0.0017522,"INCLINATION":70.9924,"RA_OF_ASC_NODE":334.9629,"ARG_OF_PERICENTER":191.7134,"MEAN_ANOMALY":168.3585,"EPHEMERIS_TYPE":0,"CLASSIFICATION_TYPE":"U","NORAD_CAT_ID":22803,"ELEMENT_SET_NO":999,"REV_AT_EPOCH":68196,"BSTAR":-4.1882e-5,"MEAN_MOTION_DOT":-1.33e-6,"MEAN_MOTION_DDOT":0},{"OBJECT_NAME":"ARIANE 40 R/B","OBJECT_ID":"1993-061H","EPOCH":"2026-03-26T16:00:58.302144","MEAN_MOTION":14.32869712,"ECCENTRICITY":0.0009893,"INCLINATION":98.4885,"RA_OF_ASC_NODE":154.2175,"ARG_OF_PERICENTER":229.2191,"MEAN_ANOMALY":130.8135,"EPHEMERIS_TYPE":0,"CLASSIFICATION_TYPE":"U","NORAD_CAT_ID":22830,"ELEMENT_SET_NO":999,"REV_AT_EPOCH":69653,"BSTAR":8.8589e-5,"MEAN_MOTION_DOT":1.99e-6,"MEAN_MOTION_DDOT":0},{"OBJECT_NAME":"COSMOS 2278","OBJECT_ID":"1994-023A","EPOCH":"2026-03-26T13:42:46.882944","MEAN_MOTION":14.14376287,"ECCENTRICITY":0.0009069,"INCLINATION":71.0523,"RA_OF_ASC_NODE":139.7812,"ARG_OF_PERICENTER":346.5632,"MEAN_ANOMALY":13.5248,"EPHEMERIS_TYPE":0,"CLASSIFICATION_TYPE":"U","NORAD_CAT_ID":23087,"ELEMENT_SET_NO":999,"REV_AT_EPOCH":64719,"BSTAR":-0.00010804,"MEAN_MOTION_DOT":-2.54e-6,"MEAN_MOTION_DDOT":0},{"OBJECT_NAME":"SL-16 R/B","OBJECT_ID":"1994-023B","EPOCH":"2026-03-26T21:25:59.163168","MEAN_MOTION":14.15013863,"ECCENTRICITY":0.0005448,"INCLINATION":71.0012,"RA_OF_ASC_NODE":34.756,"ARG_OF_PERICENTER":269.3967,"MEAN_ANOMALY":90.6531,"EPHEMERIS_TYPE":0,"CLASSIFICATION_TYPE":"U","NORAD_CAT_ID":23088,"ELEMENT_SET_NO":999,"REV_AT_EPOCH":64852,"BSTAR":0.00019773,"MEAN_MOTION_DOT":3.35e-6,"MEAN_MOTION_DDOT":0},{"OBJECT_NAME":"SL-16 R/B","OBJECT_ID":"1994-074B","EPOCH":"2026-03-26T17:11:39.369696","MEAN_MOTION":14.79426449,"ECCENTRICITY":0.0007138,"INCLINATION":97.7085,"RA_OF_ASC_NODE":115.843,"ARG_OF_PERICENTER":154.4778,"MEAN_ANOMALY":341.8931,"EPHEMERIS_TYPE":0,"CLASSIFICATION_TYPE":"U","NORAD_CAT_ID":23343,"ELEMENT_SET_NO":999,"REV_AT_EPOCH":68976,"BSTAR":6.5102e-5,"MEAN_MOTION_DOT":4.37e-6,"MEAN_MOTION_DDOT":0},{"OBJECT_NAME":"SL-16 R/B","OBJECT_ID":"1994-077B","EPOCH":"2026-03-26T20:49:49.639296","MEAN_MOTION":14.15569135,"ECCENTRICITY":0.0002066,"INCLINATION":70.9837,"RA_OF_ASC_NODE":316.3514,"ARG_OF_PERICENTER":198.0433,"MEAN_ANOMALY":162.0617,"EPHEMERIS_TYPE":0,"CLASSIFICATION_TYPE":"U","NORAD_CAT_ID":23405,"ELEMENT_SET_NO":999,"REV_AT_EPOCH":61866,"BSTAR":3.0778e-5,"MEAN_MOTION_DOT":1.2e-7,"MEAN_MOTION_DDOT":0},{"OBJECT_NAME":"ARIANE 40+ R/B","OBJECT_ID":"1995-021B","EPOCH":"2026-03-26T11:39:45.761184","MEAN_MOTION":14.39784191,"ECCENTRICITY":0.0007978,"INCLINATION":98.4468,"RA_OF_ASC_NODE":156.7386,"ARG_OF_PERICENTER":93.1506,"MEAN_ANOMALY":277.5028,"EPHEMERIS_TYPE":0,"CLASSIFICATION_TYPE":"U","NORAD_CAT_ID":23561,"ELEMENT_SET_NO":999,"REV_AT_EPOCH":62166,"BSTAR":0.00010577,"MEAN_MOTION_DOT":2.88e-6,"MEAN_MOTION_DDOT":0},{"OBJECT_NAME":"SL-16 R/B","OBJECT_ID":"1995-058B","EPOCH":"2026-03-26T14:14:02.129280","MEAN_MOTION":14.15499957,"ECCENTRICITY":0.0010118,"INCLINATION":71.0209,"RA_OF_ASC_NODE":144.7695,"ARG_OF_PERICENTER":94.4529,"MEAN_ANOMALY":265.775,"EPHEMERIS_TYPE":0,"CLASSIFICATION_TYPE":"U","NORAD_CAT_ID":23705,"ELEMENT_SET_NO":999,"REV_AT_EPOCH":57024,"BSTAR":-9.3377e-5,"MEAN_MOTION_DOT":-2.3e-6,"MEAN_MOTION_DDOT":0},{"OBJECT_NAME":"SL-16 R/B","OBJECT_ID":"1996-051B","EPOCH":"2026-03-26T14:18:57.401280","MEAN_MOTION":14.12420353,"ECCENTRICITY":0.0013686,"INCLINATION":70.7589,"RA_OF_ASC_NODE":139.4557,"ARG_OF_PERICENTER":120.9279,"MEAN_ANOMALY":239.3188,"EPHEMERIS_TYPE":0,"CLASSIFICATION_TYPE":"U","NORAD_CAT_ID":24298,"ELEMENT_SET_NO":999,"REV_AT_EPOCH":52403,"BSTAR":7.2555e-5,"MEAN_MOTION_DOT":8.5e-7,"MEAN_MOTION_DDOT":0},{"OBJECT_NAME":"ORBVIEW 2 (SEASTAR)","OBJECT_ID":"1997-037A","EPOCH":"2026-03-26T16:53:39.297120","MEAN_MOTION":14.35506458,"ECCENTRICITY":0.0002517,"INCLINATION":98.8598,"RA_OF_ASC_NODE":250.4692,"ARG_OF_PERICENTER":35.9076,"MEAN_ANOMALY":324.2277,"EPHEMERIS_TYPE":0,"CLASSIFICATION_TYPE":"U","NORAD_CAT_ID":24883,"ELEMENT_SET_NO":999,"REV_AT_EPOCH":51091,"BSTAR":0.00011608,"MEAN_MOTION_DOT":2.87e-6,"MEAN_MOTION_DDOT":0},{"OBJECT_NAME":"SL-16 R/B","OBJECT_ID":"1998-043G","EPOCH":"2026-03-26T08:38:48.624000","MEAN_MOTION":14.26053525,"ECCENTRICITY":0.0009328,"INCLINATION":98.8282,"RA_OF_ASC_NODE":38.8447,"ARG_OF_PERICENTER":332.1155,"MEAN_ANOMALY":27.9523,"EPHEMERIS_TYPE":0,"CLASSIFICATION_TYPE":"U","NORAD_CAT_ID":25400,"ELEMENT_SET_NO":999,"REV_AT_EPOCH":44136,"BSTAR":5.1813e-5,"MEAN_MOTION_DOT":7.8e-7,"MEAN_MOTION_DDOT":0},{"OBJECT_NAME":"SL-16 R/B","OBJECT_ID":"1998-045B","EPOCH":"2026-03-26T17:41:14.380800","MEAN_MOTION":14.16194689,"ECCENTRICITY":0.0007881,"INCLINATION":71.0107,"RA_OF_ASC_NODE":145.7267,"ARG_OF_PERICENTER":341.4011,"MEAN_ANOMALY":18.6823,"EPHEMERIS_TYPE":0,"CLASSIFICATION_TYPE":"U","NORAD_CAT_ID":25407,"ELEMENT_SET_NO":999,"REV_AT_EPOCH":42951,"BSTAR":-0.00010055,"MEAN_MOTION_DOT":-2.47e-6,"MEAN_MOTION_DDOT":0},{"OBJECT_NAME":"ISS (ZARYA)","OBJECT_ID":"1998-067A","EPOCH":"2026-03-26T19:25:42.681792","MEAN_MOTION":15.48566257,"ECCENTRICITY":0.0006206,"INCLINATION":51.6341,"RA_OF_ASC_NODE":347.7277,"ARG_OF_PERICENTER":236.0994,"MEAN_ANOMALY":123.9405,"EPHEMERIS_TYPE":0,"CLASSIFICATION_TYPE":"U","NORAD_CAT_ID":25544,"ELEMENT_SET_NO":999,"REV_AT_EPOCH":55898,"BSTAR":0.00024531,"MEAN_MOTION_DOT":0.0001289,"MEAN_MOTION_DDOT":0},{"OBJECT_NAME":"CZ-4B R/B","OBJECT_ID":"1999-025C","EPOCH":"2026-03-26T09:00:36.021024","MEAN_MOTION":14.18268532,"ECCENTRICITY":0.0036057,"INCLINATION":98.6593,"RA_OF_ASC_NODE":129.2593,"ARG_OF_PERICENTER":297.6687,"MEAN_ANOMALY":72.5234,"EPHEMERIS_TYPE":0,"CLASSIFICATION_TYPE":"U","NORAD_CAT_ID":25732,"ELEMENT_SET_NO":999,"REV_AT_EPOCH":39053,"BSTAR":4.6635e-5,"MEAN_MOTION_DOT":5.3e-7,"MEAN_MOTION_DDOT":0},{"OBJECT_NAME":"OKEAN-O","OBJECT_ID":"1999-039A","EPOCH":"2026-03-26T14:49:34.260096","MEAN_MOTION":14.8036155,"ECCENTRICITY":8.85e-5,"INCLINATION":97.9407,"RA_OF_ASC_NODE":145.3343,"ARG_OF_PERICENTER":88.0649,"MEAN_ANOMALY":272.0664,"EPHEMERIS_TYPE":0,"CLASSIFICATION_TYPE":"U","NORAD_CAT_ID":25860,"ELEMENT_SET_NO":999,"REV_AT_EPOCH":43689,"BSTAR":9.1511e-5,"MEAN_MOTION_DOT":6.46e-6,"MEAN_MOTION_DDOT":0},{"OBJECT_NAME":"SL-16 R/B","OBJECT_ID":"1999-039B","EPOCH":"2026-03-26T13:57:39.984192","MEAN_MOTION":14.81753607,"ECCENTRICITY":0.0014381,"INCLINATION":97.993,"RA_OF_ASC_NODE":144.6502,"ARG_OF_PERICENTER":197.5513,"MEAN_ANOMALY":162.5205,"EPHEMERIS_TYPE":0,"CLASSIFICATION_TYPE":"U","NORAD_CAT_ID":25861,"ELEMENT_SET_NO":999,"REV_AT_EPOCH":43936,"BSTAR":7.2753e-5,"MEAN_MOTION_DOT":5.2e-6,"MEAN_MOTION_DDOT":0},{"OBJECT_NAME":"DELTA 2 R/B","OBJECT_ID":"1999-041E","EPOCH":"2026-03-26T10:21:37.673856","MEAN_MOTION":14.11874235,"ECCENTRICITY":0.0502635,"INCLINATION":51.7606,"RA_OF_ASC_NODE":234.401,"ARG_OF_PERICENTER":37.8096,"MEAN_ANOMALY":325.7055,"EPHEMERIS_TYPE":0,"CLASSIFICATION_TYPE":"U","NORAD_CAT_ID":25876,"ELEMENT_SET_NO":999,"REV_AT_EPOCH":36539,"BSTAR":0.00015446,"MEAN_MOTION_DOT":7.14e-6,"MEAN_MOTION_DDOT":0}]
